ORBCOMM FM115 [+]       
1 41186U 15081H   24012.32538876  .00001503  00000+0  34392-3 0  9998
2 41186  47.0010 357.0452 0001041 252.4746 107.6026 14.60255435431449
ORBCOMM FM108 [+]       
1 41187U 15081J   24012.51734312  .00001437  00000+0  35979-3 0  9991
2 41187  47.0053  46.6995 0001776  60.1364 299.9697 14.56163768430715
ORBCOMM FM117 [+]       
1 41188U 15081K   24012.14027601  .00001650  00000+0  40765-3 0  9993
2 41188  47.0022  47.4101 0001900  85.7535 274.3566 14.56167463430709
ORBCOMM FM116 [+]       
1 41189U 15081L   24012.47283771  .00001506  00000+0  37522-3 0  9999
2 41189  47.0013 135.6543 0002932 200.5314 159.5453 14.56175314429631
